ONEWEB-0159             
1 48062U 21025W   24194.47075209 -.00000185  00000+0 -54219-3 0  9993
2 48062  87.8924 100.4787 0001794  83.3398 276.7936 13.13469787161098
ONEWEB-0164             
1 48063U 21025X   24194.45329261 -.00000107  00000+0 -32684-3 0  9998
2 48063  87.8928 100.4920 0001978  73.7434 286.3913 13.13472100161073
ONEWEB-0167             
1 48064U 21025Y   24194.48265584  .00000083  00000+0  19263-3 0  9998
2 48064  87.8925 100.4988 0001752  80.3737 279.7590 13.13469841161069
ONEWEB-0166             
1 48065U 21025Z   24194.50408186  .00000467  00000+0  12428-2 0  9990
2 48065  87.8921 100.4771 0001943  83.7013 276.4337 13.13469516161143
ONEWEB-0151             
1 48066U 21025AA  24194.50566837  .00000359  00000+0  94718-3 0  9992
2 48066  87.8922 100.4909 0001932  72.6832 287.4509 13.13472407161081
ONEWEB-0170             
1 48067U 21025AB  24194.43743311  .00000177  00000+0  45102-3 0  9990
2 48067  87.8924 100.5069 0002282  63.2880 296.8482 13.13470138161038
ONEWEB-0168             
1 48068U 21025AC  24194.49932298  .00000286  00000+0  74773-3 0  9998
2 48068  87.8927 100.4648 0001886  78.5562 281.5779 13.13468892161055
ONEWEB-0173             
1 48069U 21025AD  24194.49138534  .00000297  00000+0  77820-3 0  9998
2 48069  87.8927 100.4763 0001495  71.5424 288.5867 13.13470614161296
